NORAD_CAT_ID,OBJECT_NAME,OBJECT_TYPE,EPOCH,MEAN_MOTION,ECCENTRICITY,INCLINATION,RA_OF_ASC_NODE,ARG_OF_PERICENTER,MEAN_ANOMALY,BSTAR,MEAN_MOTION_DOT,MEAN_MOTION_DDOT,TLE_LINE0,TLE_LINE1,TLE_LINE2,SEMIMAJOR_AXIS,PERIOD,APOGEE,PERIGEE,DECAYED
53573.0,STARLINK-4547,PAYLOAD,2023-02-21 19:46:34,15.08833583,0.0001292,53.2213,5.3106,85.2996,274.8143,2.8074e-05,1.59e-06,0.0,0 STARLINK-4547,1 53573U 22101AY  23052.82400839  .00000159  00000-0  28074-4 0  9995,2 53573  53.2213   5.3106 0001292  85.2996 274.8143 15.08833583 28596,6917.9,95.438,540.659,538.871,0.0
53573.0,STARLINK-4547,PAYLOAD,2023-02-21 21:21:57,15.08833509,0.0001413,53.2216,5.0107,94.5723,265.543,-3.8488e-05,-9e-06,0.0,0 STARLINK-4547,1 53573U 22101AY  23052.89025177 -.00000900  00000-0 -38488-4 0  9996,2 53573  53.2216   5.0107 0001413  94.5723 265.5430 15.08833509 28609,6917.9,95.438,540.743,538.788,0.0
53573.0,STARLINK-4547,PAYLOAD,2023-02-22 05:18:52,15.08839773,0.0001277,53.2209,3.524,85.8854,274.2284,2.6943e-05,1.41e-06,0.0,0 STARLINK-4547,1 53573U 22101AY  23053.22144641  .00000141  00000-0  26943-4 0  9990,2 53573  53.2209   3.5240 0001277  85.8854 274.2284 15.08839773 28656,6917.881,95.438,540.629,538.863,0.0
53573.0,STARLINK-4547,PAYLOAD,2023-02-23 03:34:16,15.08843471,9.07e-05,53.2181,359.3624,101.8281,258.2813,2.151e-05,5.5e-07,0.0,0 STARLINK-4547,1 53573U 22101AY  23054.14880623  .00000055  00000-0  21510-4 0  9998,2 53573  53.2181 359.3624 0000907 101.8281 258.2813 15.08843471 28790,6917.87,95.437,540.362,539.107,0.0
53573.0,STARLINK-4547,PAYLOAD,2023-02-23 06:45:02,15.08850256,9.41e-05,53.2184,358.7649,86.9603,273.1497,7.1496e-05,8.51e-06,0.0,0 STARLINK-4547,1 53573U 22101AY  23054.28128055  .00000851  00000-0  71496-4 0  9999,2 53573  53.2184 358.7649 0000941  86.9603 273.1497 15.08850256 28818,6917.849,95.437,540.365,539.063,0.0
53573.0,STARLINK-4547,PAYLOAD,2023-02-23 19:28:08,15.08837143,0.0001295,53.219,356.3856,77.2488,282.8649,3.3358e-05,2.43e-06,0.0,0 STARLINK-4547,1 53573U 22101AY  23054.81121255  .00000243  00000-0  33358-4 0  9993,2 53573  53.2190 356.3856 0001295  77.2488 282.8649 15.08837143 28890,6917.889,95.438,540.65,538.858,0.0
53573.0,STARLINK-4547,PAYLOAD,2023-02-24 05:00:26,15.08853707,0.0001097,53.2194,354.601,88.1658,271.9459,0.00015517,2.183e-05,0.0,0 STARLINK-4547,1 53573U 22101AY  23055.20863734  .00002183  00000-0  15517-3 0  9993,2 53573  53.2194 354.6010 0001097  88.1658 271.9459 15.08853707 28956,6917.838,95.437,540.462,538.945,0.0
53573.0,STARLINK-4547,PAYLOAD,2023-02-24 20:54:19,15.08835159,9.11e-05,53.2183,351.6299,99.1416,260.968,-5.7269e-05,-1.199e-05,0.0,0 STARLINK-4547,1 53573U 22101AY  23055.87105661 -.00001199  00000-0 -57269-4 0  9993,2 53573  53.2183 351.6299 0000911  99.1416 260.9680 15.08835159 29055,6917.895,95.438,540.39,539.13,0.0
53573.0,STARLINK-4547,PAYLOAD,2023-02-25 04:51:14,15.08843703,9.12e-05,53.2187,350.1428,101.0556,259.0539,8.2007e-06,-1.57e-06,0.0,0 STARLINK-4547,1 53573U 22101AY  23056.20224949 -.00000157  00000-0  82007-5 0  9993,2 53573  53.2187 350.1428 0000912 101.0556 259.0539 15.08843703 29108,6917.869,95.437,540.365,539.103,0.0
53573.0,STARLINK-4547,PAYLOAD,2023-02-26 04:42:00,15.08849663,0.0001156,53.219,345.6811,112.9296,247.1818,3.3917e-05,2.52e-06,0.0,0 STARLINK-4547,1 53573U 22101AY  23057.19584451  .00000252  00000-0  33917-4 0  9999,2 53573  53.2190 345.6811 0001156 112.9296 247.1818 15.08849663 29255,6917.851,95.437,540.516,538.916,0.0
53573.0,STARLINK-4547,PAYLOAD,2023-02-27 01:22:01,15.08844996,0.0001116,53.2184,341.8148,120.0315,240.0788,0.00010512,1.386e-05,0.0,0 STARLINK-4547,1 53573U 22101AY  23058.05696227  .00001386  00000-0  10512-3 0  9994,2 53573  53.2184 341.8148 0001116 120.0315 240.0788 15.08844996 29383,6917.865,95.437,540.502,538.958,0.0
53573.0,STARLINK-4547,PAYLOAD,2023-02-27 04:32:46,15.08862242,0.0001161,53.2197,341.2212,106.9755,253.1364,0.00024141,3.559e-05,0.0,0 STARLINK-4547,1 53573U 22101AY  23058.18942791  .00003559  00000-0  24141-3 0  9995,2 53573  53.2197 341.2212 0001161 106.9755 253.1364 15.08862242 29406,6917.812,95.436,540.481,538.874,0.0
53573.0,STARLINK-4547,PAYLOAD,2023-02-27 18:51:15,15.08857636,0.0001193,53.2183,338.542,91.0204,269.0925,7.2798e-05,8.71e-06,0.0,0 STARLINK-4547,1 53573U 22101AY  23058.78559193  .00000871  00000-0  72798-4 0  9997,2 53573  53.2183 338.5420 0001193  91.0204 269.0925 15.08857636 29498,6917.826,95.436,540.517,538.866,0.0
53573.0,STARLINK-4547,PAYLOAD,2023-02-28 02:48:08,15.0888037,0.0001279,53.2196,337.0578,90.3682,269.7457,0.00018487,2.659e-05,0.0,0 STARLINK-4547,1 53573U 22101AY  23059.11676885  .00002659  00000-0  18487-3 0  9993,2 53573  53.2196 337.0578 0001279  90.3682 269.7457 15.08880370 29541,6917.757,95.435,540.507,538.737,0.0
53573.0,STARLINK-4547,PAYLOAD,2023-02-28 04:23:31,15.08884856,0.0001127,53.2193,336.7613,91.8822,268.2299,0.00028674,4.284e-05,0.0,0 STARLINK-4547,1 53573U 22101AY  23059.18300092  .00004284  00000-0  28674-3 0  9999,2 53573  53.2193 336.7613 0001127  91.8822 268.2299 15.08884856 29550,6917.743,95.435,540.388,538.829,0.0
53573.0,STARLINK-4547,PAYLOAD,2023-02-28 21:52:51,15.08818265,0.0001112,53.2194,333.49,112.8318,247.2792,-0.0003844,-6.397e-05,0.0,0 STARLINK-4547,1 53573U 22101AY  23059.91170627 -.00006397  00000-0 -38440-3 0  9990,2 53573  53.2194 333.4900 0001112 112.8318 247.2792 15.08818265 29660,6917.947,95.439,540.581,539.043,0.0
53573.0,STARLINK-4547,PAYLOAD,2023-03-01 02:39:00,15.08824036,0.0001064,53.2193,332.5983,102.064,258.0471,-0.00028212,-4.773e-05,0.0,0 STARLINK-4547,1 53573U 22101AY  23060.11042213 -.00004773  00000-0 -28212-3 0  9995,2 53573  53.2193 332.5983 0001064 102.0640 258.0471 15.08824036 29695,6917.929,95.439,540.53,539.058,0.0
53573.0,STARLINK-4547,PAYLOAD,2023-03-01 05:49:46,15.08832947,9.53e-05,53.218,332.004,101.9163,258.1936,-0.0002026,-3.51e-05,0.0,0 STARLINK-4547,1 53573U 22101AY  23060.24289596 -.00003510  00000-0 -20260-3 0  9999,2 53573  53.2180 332.0040 0000953 101.9163 258.1936 15.08832947 29714,6917.902,95.438,540.426,539.108,0.0
53573.0,STARLINK-4547,PAYLOAD,2023-03-01 21:43:36,15.08844327,0.0001045,53.2199,329.0326,83.5746,276.5366,-9.9862e-05,-1.877e-05,0.0,0 STARLINK-4547,1 53573U 22101AY  23060.90528717 -.00001877  00000-0 -99862-4 0  9992,2 53573  53.2199 329.0326 0001045  83.5746 276.5366 15.08844327 29819,6917.867,95.437,540.455,539.009,0.0
53573.0,STARLINK-4547,PAYLOAD,2023-03-02 02:29:44,15.08859731,0.0001096,53.2193,328.1386,100.0973,260.0143,3.0388e-05,1.96e-06,0.0,0 STARLINK-4547,1 53573U 22101AY  23061.10399265  .00000196  00000-0  30388-4 0  9998,2 53573  53.2193 328.1386 0001096 100.0973 260.0143 15.08859731 29841,6917.82,95.436,540.443,538.927,0.0
53573.0,STARLINK-4547,PAYLOAD,2023-03-02 16:48:15,15.0882212,0.0001074,53.2188,325.4615,113.529,246.5815,0.00023345,3.428e-05,0.0,0 STARLINK-4547,1 53573U 22101AY  23061.70017638  .00003428  00000-0  23345-3 0  9990,2 53573  53.2188 325.4615 0001074 113.5290 246.5815 15.08822120 29934,6917.935,95.439,540.543,539.057,0.0
53573.0,STARLINK-4547,PAYLOAD,2023-03-03 02:20:34,15.08828689,0.000112,53.219,323.6795,96.6828,263.4291,0.00027922,4.157e-05,0.0,0 STARLINK-4547,1 53573U 22101AY  23062.09761658  .00004157  00000-0  27922-3 0  9996,2 53573  53.2190 323.6795 0001120  96.6828 263.4291 15.08828689 29994,6917.915,95.438,540.555,539.005,0.0
53573.0,STARLINK-4547,PAYLOAD,2023-03-03 21:25:11,15.08848785,0.0001108,53.2189,320.1105,102.4601,257.6515,2.4501e-05,1.02e-06,0.0,0 STARLINK-4547,1 53573U 22101AY  23062.89249090  .00000102  00000-0  24501-4 0  9992,2 53573  53.2189 320.1105 0001108 102.4601 257.6515 15.08848785 30119,6917.854,95.437,540.485,538.952,0.0
53573.0,STARLINK-4547,PAYLOAD,2023-03-04 00:35:55,15.08872412,0.0001099,53.2185,319.5143,109.6178,250.4933,0.00017939,2.571e-05,0.0,0 STARLINK-4547,1 53573U 22101AY  23063.02495094  .00002571  00000-0  17939-3 0  9993,2 53573  53.2185 319.5143 0001099 109.6178 250.4933 15.08872412 30137,6917.781,95.436,540.407,538.886,0.0
53573.0,STARLINK-4547,PAYLOAD,2023-03-04 22:51:22,15.08832401,0.0001381,53.2191,315.3518,87.0117,273.1033,-5.1371e-05,-1.105e-05,0.0,0 STARLINK-4547,1 53573U 22101AY  23063.95234433 -.00001105  00000-0 -51371-4 0  9996,2 53573  53.2191 315.3518 0001381  87.0117 273.1033 15.08832401 30272,6917.904,95.438,540.724,538.813,0.0
53573.0,STARLINK-4547,PAYLOAD,2023-03-05 06:48:17,15.08842194,0.000124,53.2176,313.8664,66.2489,293.8633,5.311e-05,5.58e-06,0.0,0 STARLINK-4547,1 53573U 22101AY  23064.28353571  .00000558  00000-0  53110-4 0  9990,2 53573  53.2176 313.8664 0001240  66.2489 293.8633 15.08842194 30326,6917.874,95.437,540.596,538.881,0.0
53573.0,STARLINK-4547,PAYLOAD,2023-03-05 22:42:08,15.08850479,0.0001125,53.2181,310.8883,79.4085,280.7034,-7.0588e-05,-1.411e-05,0.0,0 STARLINK-4547,1 53573U 22101AY  23064.94593420 -.00001411  00000-0 -70588-4 0  9991,2 53573  53.2181 310.8883 0001125  79.4085 280.7034 15.08850479 30428,6917.848,95.437,540.492,538.935,0.0
53573.0,STARLINK-4547,PAYLOAD,2023-03-06 01:52:53,15.0887504,0.0001313,53.2189,310.2952,75.6306,284.4832,8.5184e-05,1.069e-05,0.0,0 STARLINK-4547,1 53573U 22101AY  23065.07839137  .00001069  00000-0  85184-4 0  9999,2 53573  53.2189 310.2952 0001313  75.6306 284.4832 15.08875040 30440,6917.773,95.435,540.547,538.73,0.0
53573.0,STARLINK-4547,PAYLOAD,2023-03-06 16:11:23,15.08836121,0.0001164,53.2184,307.6203,84.475,275.6375,7.2078e-06,-1.73e-06,0.0,0 STARLINK-4547,1 53573U 22101AY  23065.67458278 -.00000173  00000-0  72078-5 0  9993,2 53573  53.2184 307.6203 0001164  84.4750 275.6375 15.08836121 30530,6917.892,95.438,540.562,538.952,0.0
53573.0,STARLINK-4547,PAYLOAD,2023-03-06 22:32:56,15.08842712,9.06e-05,53.2179,306.4306,67.6734,292.4354,7.3515e-05,8.83e-06,0.0,0 STARLINK-4547,1 53573U 22101AY  23065.93953746  .00000883  00000-0  73515-4 0  9995,2 53573  53.2179 306.4306 0000906  67.6734 292.4354 15.08842712 30574,6917.872,95.437,540.364,539.11,0.0
